{
  "norad_id": 61535,
  "name": "STARLINK-11362 [DTC]",
  "history": [
    {
      "epoch": "2026-03-28T13:31:59.600928",
      "apogee_km": 360.55533871198986,
      "perigee_km": 358.84123341521445,
      "latitude_deg": 53.07147777279484,
      "longitude_deg": 27.632889920147136,
      "semi_major_axis_km": 6737.835286063601,
      "eccentricity": 0.0001272,
      "inclination_deg": 53.1593,
      "raan_deg": 143.0789,
      "arg_perigee_deg": 110.549,
      "mean_anomaly_deg": 249.5665,
      "mean_motion_rev_day": 15.69719947
    }
  ]
}